{
  "type": "FeatureCollection",
  "features": [
    {
      "type": "Feature",
      "properties": {
        "norad_id": 35122,
        "name": "FENGYUN 1C DEB",
        "group": "fengyun-1c-debris",
        "lat": -0.15267915532060533,
        "lon": -169.20517329856716,
        "alt_km": 833.8295085602658,
        "timestamp": "2025-12-18T13:51:49.971226+00:00",
        "meta_object_name": "FENGYUN 1C DEB",
        "meta_object_id": "1999-025DLA",
        "meta_epoch": "2025-12-16T06:40:38.257248",
        "meta_mean_motion": 14.14128348,
        "meta_eccentricity": 0.00254765,
        "meta_inclination": 98.6718,
        "meta_ra_of_asc_node": 8.5868,
        "meta_arg_of_pericenter": 147.8283,
        "meta_mean_anomaly": 212.4451,
        "meta_ephemeris_type": 0,
        "meta_classification_type": "U",
        "meta_norad_cat_id": 35122,
        "meta_element_set_no": 999,
        "meta_rev_at_epoch": 63917,
        "meta_bstar": 0.00028818425,
        "meta_mean_motion_dot": 5.08e-06,
        "meta_mean_motion_ddot": 0,
        "tle_line1": "1 35122U 99025DLA 25350.27822057  .00000508  00000+0  28818-3 0  9998",
        "tle_line2": "2 35122  98.6718   8.5868 0025476 147.8283 212.4451 14.14128348639177"
      },
      "geometry": {
        "type": "Point",
        "coordinates": [
          -169.20517329856716,
          -0.15267915532060533
        ]
      }
    },
    {
      "type": "Feature",
      "properties": {
        "norad_id": 35123,
        "name": "FENGYUN 1C DEB",
        "group": "fengyun-1c-debris",
        "lat": -7.408242822447393,
        "lon": -5.715808628000034,
        "alt_km": 836.6469992680304,
        "timestamp": "2025-12-18T13:51:49.971236+00:00",
        "meta_object_name": "FENGYUN 1C DEB",
        "meta_object_id": "1999-025DLB",
        "meta_epoch": "2025-12-15T05:44:46.773600",
        "meta_mean_motion": 14.2422342,
        "meta_eccentricity": 0.00496704,
        "meta_inclination": 99.1227,
        "meta_ra_of_asc_node": 172.0178,
        "meta_arg_of_pericenter": 69.1967,
        "meta_mean_anomaly": 291.4521,
        "meta_ephemeris_type": 0,
        "meta_classification_type": "U",
        "meta_norad_cat_id": 35123,
        "meta_element_set_no": 999,
        "meta_rev_at_epoch": 61109,
        "meta_bstar": 0.00057394195,
        "meta_mean_motion_dot": 1.293e-05,
        "meta_mean_motion_ddot": 0,
        "tle_line1": "1 35123U 99025DLB 25349.23943025  .00001293  00000+0  57394-3 0  9995",
        "tle_line2": "2 35123  99.1227 172.0178 0049670  69.1967 291.4521 14.24223420611091"
      },
      "geometry": {
        "type": "Point",
        "coordinates": [
          -5.715808628000034,
          -7.408242822447393
        ]
      }
    },
    {
      "type": "Feature",
      "properties": {
        "norad_id": 35125,
        "name": "FENGYUN 1C DEB",
        "group": "fengyun-1c-debris",
        "lat": 78.8297800580437,
        "lon": -129.64453676085165,
        "alt_km": 811.0037498857637,
        "timestamp": "2025-12-18T13:51:49.971246+00:00",
        "meta_object_name": "FENGYUN 1C DEB",
        "meta_object_id": "1999-025DLD",
        "meta_epoch": "2025-12-08T07:05:36.118752",
        "meta_mean_motion": 14.33084151,
        "meta_eccentricity": 0.00521413,
        "meta_inclination": 98.2165,
        "meta_ra_of_asc_node": 353.5679,
        "meta_arg_of_pericenter": 308.0323,
        "meta_mean_anomaly": 51.6162,
        "meta_ephemeris_type": 0,
        "meta_classification_type": "U",
        "meta_norad_cat_id": 35125,
        "meta_element_set_no": 999,
        "meta_rev_at_epoch": 31218,
        "meta_bstar": 0.0020544677,
        "meta_mean_motion_dot": 5.68e-05,
        "meta_mean_motion_ddot": 0,
        "tle_line1": "1 35125U 99025DLD 25342.29555693  .00005680  00000+0  20545-2 0  9997",
        "tle_line2": "2 35125  98.2165 353.5679 0052141 308.0323  51.6162 14.33084151312185"
      },
      "geometry": {
        "type": "Point",
        "coordinates": [
          -129.64453676085165,
          78.8297800580437
        ]
      }
    },
    {
      "type": "Feature",
      "properties": {
        "norad_id": 35130,
        "name": "FENGYUN 1C DEB",
        "group": "fengyun-1c-debris",
        "lat": 25.343783156387772,
        "lon": -166.2361986174141,
        "alt_km": 555.3356795593218,
        "timestamp": "2025-12-18T13:51:49.971256+00:00",
        "meta_object_name": "FENGYUN 1C DEB",
        "meta_object_id": "1999-025DLJ",
        "meta_epoch": "2025-12-17T20:09:13.141152",
        "meta_mean_motion": 15.01150663,
        "meta_eccentricity": 0.00111617,
        "meta_inclination": 99.0323,
        "meta_ra_of_asc_node": 197.2276,
        "meta_arg_of_pericenter": 55.756,
        "meta_mean_anomaly": 304.4716,
        "meta_ephemeris_type": 0,
        "meta_classification_type": "U",
        "meta_norad_cat_id": 35130,
        "meta_element_set_no": 999,
        "meta_rev_at_epoch": 64990,
        "meta_bstar": 0.0063470097,
        "meta_mean_motion_dot": 0.00082289,
        "meta_mean_motion_ddot": 0,
        "tle_line1": "1 35130U 99025DLJ 25351.83973543  .00082289  00000+0  63470-2 0  9995",
        "tle_line2": "2 35130  99.0323 197.2276 0011161  55.7560 304.4716 15.01150663649903"
      },
      "geometry": {
        "type": "Point",
        "coordinates": [
          -166.2361986174141,
          25.343783156387772
        ]
      }
    },
    {
      "type": "Feature",
      "properties": {
        "norad_id": 35135,
        "name": "FENGYUN 1C DEB",
        "group": "fengyun-1c-debris",
        "lat": -43.949786365233905,
        "lon": 9.573788877057089,
        "alt_km": 784.3788936385599,
        "timestamp": "2025-12-18T13:51:49.971267+00:00",
        "meta_object_name": "FENGYUN 1C DEB",
        "meta_object_id": "1999-025DLP",
        "meta_epoch": "2025-12-16T18:10:55.660224",
        "meta_mean_motion": 14.22547917,
        "meta_eccentricity": 0.00807653,
        "meta_inclination": 98.5647,
        "meta_ra_of_asc_node": 359.4515,
        "meta_arg_of_pericenter": 272.6039,
        "meta_mean_anomaly": 86.5896,
        "meta_ephemeris_type": 0,
        "meta_classification_type": "U",
        "meta_norad_cat_id": 35135,
        "meta_element_set_no": 999,
        "meta_rev_at_epoch": 87881,
        "meta_bstar": 0.00044907129,
        "meta_mean_motion_dot": 9.93e-06,
        "meta_mean_motion_ddot": 0,
        "tle_line1": "1 35135U 99025DLP 25350.75758866  .00000993  00000+0  44907-3 0  9996",
        "tle_line2": "2 35135  98.5647 359.4515 0080765 272.6039  86.5896 14.22547917878811"
      },
      "geometry": {
        "type": "Point",
        "coordinates": [
          9.573788877057089,
          -43.949786365233905
        ]
      }
    },
    {
      "type": "Feature",
      "properties": {
        "norad_id": 35139,
        "name": "FENGYUN 1C DEB",
        "group": "fengyun-1c-debris",
        "lat": 18.099476421141294,
        "lon": -5.195058101666392,
        "alt_km": 828.4462880852179,
        "timestamp": "2025-12-18T13:51:49.971276+00:00",
        "meta_object_name": "FENGYUN 1C DEB",
        "meta_object_id": "1999-025DLT",
        "meta_epoch": "2025-12-17T05:40:19.572096",
        "meta_mean_motion": 14.2110105,
        "meta_eccentricity": 0.0067913,
        "meta_inclination": 98.584,
        "meta_ra_of_asc_node": 356.3312,
        "meta_arg_of_pericenter": 284.2558,
        "meta_mean_anomaly": 75.1083,
        "meta_ephemeris_type": 0,
        "meta_classification_type": "U",
        "meta_norad_cat_id": 35139,
        "meta_element_set_no": 999,
        "meta_rev_at_epoch": 64217,
        "meta_bstar": 0.0003366611,
        "meta_mean_motion_dot": 7.05e-06,
        "meta_mean_motion_ddot": 0,
        "tle_line1": "1 35139U 99025DLT 25351.23633764  .00000705  00000+0  33666-3 0  9994",
        "tle_line2": "2 35139  98.5840 356.3312 0067913 284.2558  75.1083 14.21101050642179"
      },
      "geometry": {
        "type": "Point",
        "coordinates": [
          -5.195058101666392,
          18.099476421141294
        ]
      }
    },
    {
      "type": "Feature",
      "properties": {
        "norad_id": 35140,
        "name": "FENGYUN 1C DEB",
        "group": "fengyun-1c-debris",
        "lat": 66.97122996483915,
        "lon": 174.16519182171936,
        "alt_km": 1012.3095739414475,
        "timestamp": "2025-12-18T13:51:49.971287+00:00",
        "meta_object_name": "FENGYUN 1C DEB",
        "meta_object_id": "1999-025DLU",
        "meta_epoch": "2025-12-18T04:53:13.752960",
        "meta_mean_motion": 14.21355497,
        "meta_eccentricity": 0.02903724,
        "meta_inclination": 98.445,
        "meta_ra_of_asc_node": 333.3496,
        "meta_arg_of_pericenter": 310.6842,
        "meta_mean_anomaly": 46.9429,
        "meta_ephemeris_type": 0,
        "meta_classification_type": "U",
        "meta_norad_cat_id": 35140,
        "meta_element_set_no": 999,
        "meta_rev_at_epoch": 87356,
        "meta_bstar": 0.00018673112,
        "meta_mean_motion_dot": 5.73e-06,
        "meta_mean_motion_ddot": 0,
        "tle_line1": "1 35140U 99025DLU 25352.20363140  .00000573  00000+0  18673-3 0  9996",
        "tle_line2": "2 35140  98.4450 333.3496 0290372 310.6842  46.9429 14.21355497873567"
      },
      "geometry": {
        "type": "Point",
        "coordinates": [
          174.16519182171936,
          66.97122996483915
        ]
      }
    }
  ]
}